NORAD_CAT_ID,OBJECT_NAME,OBJECT_TYPE,EPOCH,MEAN_MOTION,ECCENTRICITY,INCLINATION,RA_OF_ASC_NODE,ARG_OF_PERICENTER,MEAN_ANOMALY,BSTAR,MEAN_MOTION_DOT,MEAN_MOTION_DDOT,TLE_LINE0,TLE_LINE1,TLE_LINE2,SEMIMAJOR_AXIS,PERIOD,APOGEE,PERIGEE,DECAYED
52284.0,STARLINK-3561,PAYLOAD,2024-01-16 08:29:53,15.08836369,0.0001515,53.2177,15.6496,102.6651,257.451,-5.6456e-05,-1.186e-05,0.0,0 STARLINK-3561,1 52284U 22041Z   24016.35408625 -.00001186  00000-0 -56456-4 0  9994,2 52284  53.2177  15.6496 0001515 102.6651 257.4510 15.08836369 97461,6917.891,95.438,540.805,538.708,0.0
52284.0,STARLINK-3561,PAYLOAD,2024-01-17 05:09:53,15.08841482,0.0001722,53.2194,11.7872,105.8997,254.2185,1.0802e-05,-1.16e-06,0.0,0 STARLINK-3561,1 52284U 22041Z   24017.21520326 -.00000116  00000-0  10802-4 0  9999,2 52284  53.2194  11.7872 0001722 105.8997 254.2185 15.08841482 97592,6917.876,95.437,540.932,538.55,0.0
52284.0,STARLINK-3561,PAYLOAD,2024-01-18 03:25:17,15.08837105,0.0001446,53.2176,7.6286,101.449,258.6665,3.9548e-05,3.41e-06,0.0,0 STARLINK-3561,1 52284U 22041Z   24018.14256753  .00000341  00000-0  39548-4 0  9999,2 52284  53.2176   7.6286 0001446 101.4490 258.6665 15.08837105 97732,6917.889,95.438,540.755,538.754,0.0
52284.0,STARLINK-3561,PAYLOAD,2024-01-18 08:11:26,15.08843809,0.0001443,53.2177,6.7306,97.9841,262.1315,7.6355e-05,9.28e-06,0.0,0 STARLINK-3561,1 52284U 22041Z   24018.34128254  .00000928  00000-0  76355-4 0  9993,2 52284  53.2177   6.7306 0001443  97.9841 262.1315 15.08843809 96540,6917.869,95.437,540.732,538.735,0.0
52284.0,STARLINK-3561,PAYLOAD,2024-01-19 06:26:50,15.08846439,0.0001484,53.2175,2.5696,97.5332,262.5828,9.3808e-05,1.206e-05,0.0,0 STARLINK-3561,1 52284U 22041Z   24019.26864192  .00001206  00000-0  93808-4 0  9995,2 52284  53.2175   2.5696 0001484  97.5332 262.5828 15.08846439 96680,6917.861,95.437,540.752,538.699,0.0
52284.0,STARLINK-3561,PAYLOAD,2024-01-19 22:20:42,15.0884121,0.000152,53.2174,359.5968,108.9624,251.1533,9.4218e-05,1.212e-05,0.0,0 STARLINK-3561,1 52284U 22041Z   24019.93104300  .00001212  00000-0  94218-4 0  9990,2 52284  53.2174 359.5968 0001520 108.9624 251.1533 15.08841210 96788,6917.877,95.437,540.793,538.69,0.0
52284.0,STARLINK-3561,PAYLOAD,2024-01-20 03:06:51,15.0884329,0.0001443,53.2176,358.7029,86.4102,273.7055,8.1153e-05,1.004e-05,0.0,0 STARLINK-3561,1 52284U 22041Z   24020.12976254  .00001004  00000-0  81153-4 0  9991,2 52284  53.2176 358.7029 0001443  86.4102 273.7055 15.08843290 98033,6917.87,95.437,540.734,538.737,0.0
52284.0,STARLINK-3561,PAYLOAD,2024-01-20 07:53:00,15.08848784,0.0001624,53.2177,357.8102,72.519,287.598,0.00011827,1.595e-05,0.0,0 STARLINK-3561,1 52284U 22041Z   24020.32847875  .00001595  00000-0  11827-3 0  9994,2 52284  53.2177 357.8102 0001624  72.5190 287.5980 15.08848784 96840,6917.854,95.437,540.842,538.595,0.0
52284.0,STARLINK-3561,PAYLOAD,2024-01-20 22:11:29,15.08837495,0.0001328,53.2186,355.1355,95.427,264.6874,-1.5161e-06,-3.12e-06,0.0,0 STARLINK-3561,1 52284U 22041Z   24020.92464952 -.00000312  00000-0 -15161-5 0  9996,2 52284  53.2186 355.1355 0001328  95.4270 264.6874 15.08837495 96930,6917.888,95.438,540.672,538.834,0.0
52284.0,STARLINK-3561,PAYLOAD,2024-01-21 02:57:38,15.08840911,0.000156,53.2188,354.2459,97.4009,262.716,3.7057e-05,3.02e-06,0.0,0 STARLINK-3561,1 52284U 22041Z   24021.12336643  .00000302  00000-0  37057-4 0  9998,2 52284  53.2188 354.2459 0001560  97.4009 262.7160 15.08840911 98180,6917.878,95.437,540.822,538.663,0.0
52284.0,STARLINK-3561,PAYLOAD,2024-01-21 04:33:01,15.08843451,0.0001617,53.2178,353.9475,99.0111,261.1064,4.3809e-05,4.09e-06,0.0,0 STARLINK-3561,1 52284U 22041Z   24021.18960577  .00000409  00000-0  43809-4 0  9993,2 52284  53.2178 353.9475 0001617  99.0111 261.1064 15.08843451 96971,6917.87,95.437,540.853,538.616,0.0
52284.0,STARLINK-3561,PAYLOAD,2024-01-21 07:43:47,15.08849248,0.0001637,53.2177,353.3496,108.8243,251.2927,8.7266e-05,1.101e-05,0.0,0 STARLINK-3561,1 52284U 22041Z   24021.32207970  .00001101  00000-0  87266-4 0  9995,2 52284  53.2177 353.3496 0001637 108.8243 251.2927 15.08849248 98211,6917.852,95.437,540.85,538.585,0.0
52284.0,STARLINK-3561,PAYLOAD,2024-01-21 22:02:16,15.08838996,0.000163,53.218,350.6741,97.3767,262.741,-2.2509e-05,-6.46e-06,0.0,0 STARLINK-3561,1 52284U 22041Z   24021.91824881 -.00000646  00000-0 -22509-4 0  9990,2 52284  53.2180 350.6741 0001630  97.3767 262.7410 15.08838996 97080,6917.883,95.438,540.876,538.621,0.0
52284.0,STARLINK-3561,PAYLOAD,2024-01-22 04:23:48,15.08842858,0.0001595,53.2183,349.4855,94.7396,265.3778,8.3924e-06,-1.54e-06,0.0,0 STARLINK-3561,1 52284U 22041Z   24022.18320555 -.00000154  00000-0  83924-5 0  9991,2 52284  53.2183 349.4855 0001595  94.7396 265.3778 15.08842858 98342,6917.872,95.437,540.84,538.633,0.0
52284.0,STARLINK-3561,PAYLOAD,2024-01-23 02:39:13,15.08839322,0.0001816,53.2198,345.324,111.938,248.1805,3.4132e-05,2.55e-06,0.0,0 STARLINK-3561,1 52284U 22041Z   24023.11056812  .00000255  00000-0  34132-4 0  9994,2 52284  53.2198 345.3240 0001816 111.9380 248.1805 15.08839322 98489,6917.882,95.438,541.004,538.491,0.0
52284.0,STARLINK-3561,PAYLOAD,2024-01-24 02:29:59,15.08842065,0.0001809,53.2201,340.8641,115.3803,244.7376,8.6469e-05,1.088e-05,0.0,0 STARLINK-3561,1 52284U 22041Z   24024.10416569  .00001088  00000-0  86469-4 0  9998,2 52284  53.2201 340.8641 0001809 115.3803 244.7376 15.08842065 97414,6917.874,95.437,540.991,538.488,0.0
52284.0,STARLINK-3561,PAYLOAD,2024-01-25 02:20:47,15.08834934,0.0001249,53.2185,336.4049,70.5619,289.5508,0.00010462,1.377e-05,0.0,0 STARLINK-3561,1 52284U 22041Z   24025.09777377  .00001377  00000-0  10462-3 0  9994,2 52284  53.2185 336.4049 0001249  70.5619 289.5508 15.08834934 98784,6917.896,95.438,540.625,538.897,0.0
52284.0,STARLINK-3561,PAYLOAD,2024-01-26 03:46:58,15.08828405,0.0001335,53.2175,331.6472,92.7373,267.3772,0.00017034,2.423e-05,0.0,0 STARLINK-3561,1 52284U 22041Z   24026.15761793  .00002423  00000-0  17034-3 0  9992,2 52284  53.2175 331.6472 0001335  92.7373 267.3772 15.08828405 98940,6917.916,95.438,540.704,538.857,0.0
52284.0,STARLINK-3561,PAYLOAD,2024-01-27 03:37:43,15.08839039,0.0001518,53.2195,327.1862,66.6951,293.4201,0.00043445,6.633e-05,0.0,0 STARLINK-3561,1 52284U 22041Z   24027.15120294  .00006633  00000-0  43445-3 0  9990,2 52284  53.2195 327.1862 0001518  66.6951 293.4201 15.08839039 99099,6917.883,95.438,540.798,538.698,0.0
52284.0,STARLINK-3561,PAYLOAD,2024-01-28 05:03:55,15.08838977,0.000141,53.2193,322.4234,93.07,267.0454,2.5796e-05,1.23e-06,0.0,0 STARLINK-3561,1 52284U 22041Z   24028.21105440  .00000123  00000-0  25796-4 0  9992,2 52284  53.2193 322.4234 0001410  93.0700 267.0454 15.08838977 99250,6917.884,95.438,540.724,538.773,0.0
52284.0,STARLINK-3561,PAYLOAD,2024-01-28 19:22:24,15.08832491,0.000165,53.2201,319.752,88.1512,271.9669,-0.00025938,-4.413e-05,0.0,0 STARLINK-3561,1 52284U 22041Z   24028.80722998 -.00004413  00000-0 -25938-3 0  9995,2 52284  53.2201 319.7520 0001650  88.1512 271.9669 15.08832491 99346,6917.903,95.438,540.91,538.627,0.0
52284.0,STARLINK-3561,PAYLOAD,2024-01-28 22:33:11,15.08828885,0.000141,53.22,319.1579,84.6176,275.4977,-0.00026177,-4.45e-05,0.0,0 STARLINK-3561,1 52284U 22041Z   24028.93971265 -.00004450  00000-0 -26177-3 0  9999,2 52284  53.2200 319.1579 0001410  84.6176 275.4977 15.08828885 98144,6917.914,95.438,540.755,538.804,0.0
52284.0,STARLINK-3561,PAYLOAD,2024-01-29 04:54:43,15.08829557,0.0001898,53.2189,317.9637,82.2186,277.9021,-0.00015572,-2.765e-05,0.0,0 STARLINK-3561,1 52284U 22041Z   24029.20467234 -.00002765  00000-0 -15572-3 0  9990,2 52284  53.2189 317.9637 0001898  82.2186 277.9021 15.08829557 98184,6917.912,95.438,541.09,538.464,0.0
52284.0,STARLINK-3561,PAYLOAD,2024-01-30 01:34:43,15.0884279,0.0001525,53.2185,314.1097,87.6926,272.4241,0.00019952,2.889e-05,0.0,0 STARLINK-3561,1 52284U 22041Z   24030.06577650  .00002889  00000-0  19952-3 0  9991,2 52284  53.2185 314.1097 0001525  87.6926 272.4241 15.08842790 99535,6917.872,95.437,540.792,538.682,0.0
52284.0,STARLINK-3561,PAYLOAD,2024-01-30 04:45:28,15.08848974,0.0001583,53.2191,313.5003,114.6406,245.4751,0.00021597,3.152e-05,0.0,0 STARLINK-3561,1 52284U 22041Z   24030.19824861  .00003152  00000-0  21597-3 0  9996,2 52284  53.2191 313.5003 0001583 114.6406 245.4751 15.08848974 99558,6917.853,95.437,540.813,538.623,0.0
52284.0,STARLINK-3561,PAYLOAD,2024-01-30 19:03:57,15.08839117,0.0001733,53.2184,310.823,101.9419,258.1767,0.00014975,2.096e-05,0.0,0 STARLINK-3561,1 52284U 22041Z   24030.79442128  .00002096  00000-0  14975-3 0  9992,2 52284  53.2184 310.8230 0001733 101.9419 258.1767 15.08839117 99649,6917.883,95.438,540.947,538.549,0.0
52284.0,STARLINK-3561,PAYLOAD,2024-01-30 22:14:44,15.08835567,0.0001685,53.2176,310.2281,113.6905,246.4264,0.00014421,2.008e-05,0.0,0 STARLINK-3561,1 52284U 22041Z   24030.92690187  .00002008  00000-0  14421-3 0  9996,2 52284  53.2176 310.2281 0001685 113.6905 246.4264 15.08835567 98440,6917.894,95.438,540.925,538.593,0.0
52284.0,STARLINK-3561,PAYLOAD,2024-01-30 23:50:07,15.08832721,0.0001669,53.2181,309.9366,113.1534,246.9634,0.00016799,2.386e-05,0.0,0 STARLINK-3561,1 52284U 22041Z   24030.99314289  .00002386  00000-0  16799-3 0  9998,2 52284  53.2181 309.9366 0001669 113.1534 246.9634 15.08832721 98456,6917.903,95.438,540.922,538.613,0.0
52284.0,STARLINK-3561,PAYLOAD,2024-02-01 01:16:17,15.08866734,0.0001412,53.218,305.1835,89.249,270.8664,-0.00035836,-5.991e-05,0.0,0 STARLINK-3561,1 52284U 22041Z   24032.05298188 -.00005991  00000-0 -35836-3 0  9996,2 52284  53.2180 305.1835 0001412  89.2490 270.8664 15.08866734 99837,6917.799,95.436,540.64,538.687,0.0
52284.0,STARLINK-3561,PAYLOAD,2024-02-02 01:07:04,15.08838625,0.0001439,53.2178,300.7195,80.8707,279.2448,6.9819e-05,8.23e-06,0.0,0 STARLINK-3561,1 52284U 22041Z   24033.04658318  .00000823  00000-0  69819-4 0  9997,2 52284  53.2178 300.7195 0001439  80.8707 279.2448 15.08838625 99988,6917.885,95.438,540.745,538.754,0.0
